STARLINK-1540           
1 46051U 20055AA  25087.76757049  .00005719  00000+0  40244-3 0  9993
2 46051  53.0576 229.5162 0002627  70.3732 289.7541 15.06406706256903
STARLINK-1541           
1 46052U 20055AB  25087.81917798  .00018007  00000+0  12235-2 0  9991
2 46052  53.0533 229.2893 0001514  84.4880 275.6282 15.06436223256878
STARLINK-1543           
1 46053U 20055AC  25087.69016145  .00001703  00000+0  13324-3 0  9990
2 46053  53.0543 229.8701 0001309  65.3104 294.8021 15.06394063256883
STARLINK-1548           
1 46054U 20055AD  25087.76388186 -.00002108  00000+0 -12268-3 0  9994
2 46054  53.0501 229.5380 0001297  83.0589 277.0547 15.06393072256894
STARLINK-1554           
1 46055U 20055AE  25087.81548080  .00011893  00000+0  81538-3 0  9997
2 46055  53.0501 229.3071 0001330  97.4930 262.6210 15.06426283256907
STARLINK-1564           
1 46058U 20055AH  25087.76026007  .00018223  00000+0  12384-2 0  9990
2 46058  53.0518 230.0179 0001531  71.7356 288.3799 15.06421686256882
STARLINK-1570           
1 46059U 20055AJ  25087.78967919 -.00007473  00000+0 -48346-3 0  9994
2 46059  53.0544 229.4218 0001229  77.4660 282.6466 15.06391934256850
STARLINK-1572           
1 46060U 20055AK  25087.71965334  .00015843  00000+0  10797-2 0  9994
2 46060  53.0526 229.7354 0001373  70.3645 289.7492 15.06414708256853
STARLINK-1573           
1 46061U 20055AL  25087.71596321  .00018197  00000+0  12364-2 0  9998
2 46061  53.0524 229.7870 0001466  74.7225 285.3926 15.06429498256889
STARLINK-1577           
1 46063U 20055AN  25087.74176273  .00018879  00000+0  12818-2 0  9994
2 46063  53.0525 229.6382 0001623  77.2227 282.8943 15.06431873256885
STARLINK-1583           
1 46064U 20055AP  25087.70868018 -.00272257  00000+0 -19250-1 0  9996
2 46064  53.0417 229.7785 0002526 148.8783 211.2356 15.05853344256883
STARLINK-1525           
1 46066U 20055AR  25087.70674075  .00021296  00000+0  14426-2 0  9990
2 46066  53.0538 209.7951 0001333  63.1720 296.9405 15.06441982257155
STARLINK-1533           
1 46069U 20055AU  25087.91668981  .00542150  12665-3  15826-2 0  9991
2 46069  53.0423 170.3456 0009744   6.9196 292.1857 15.92201059  6010
STARLINK-1536           
1 46070U 20055AV  25087.68463527  .00002984  00000+0  21907-3 0  9996
2 46070  53.0530 209.8950 0001328  92.4896 267.6245 15.06406670257168
STARLINK-1542           
1 46073U 20055AY  25087.67726208  .00000915  00000+0  80346-4 0  9991
2 46073  53.0536 209.9275 0001514  93.9251 266.1911 15.06396264257156
STARLINK-1549           
1 46074U 20055AZ  25087.72887167  .00011990  00000+0  82237-3 0  9995
2 46074  53.0530 209.6959 0001564  86.0035 274.1133 15.06403183257159
STARLINK-1551           
1 46075U 20055BA  25087.68833441  .00021704  00000+0  14710-2 0  9991
2 46075  53.0544 209.8771 0001678  71.7248 288.3924 15.06412087257150
STARLINK-1552           
1 46076U 20055BB  25087.71412406  .00011291  00000+0  77560-3 0  9993
2 46076  53.0542 209.7650 0001543 125.8313 234.2819 15.06405331257145
STARLINK-1559           
1 46077U 20055BC  25087.62934475  .00019695  00000+0  13363-2 0  9995
2 46077  53.0585 210.1454 0001425  66.9496 293.1643 15.06431015257100
STARLINK-1563           
1 46078U 20055BD  25087.66668981  .00978893  47925-3  18272-2 0  9995
2 46078  53.0438 172.8432 0010970   2.7510 323.7510 16.00372446  5828
STARLINK-1566           
1 46079U 20055BE  25087.66620826  .00003483  00000+0  25257-3 0  9997
2 46079  53.0519 209.9744 0001722  92.6432 267.4754 15.06401800257154
STARLINK-1568           
1 46080U 20055BF  25087.74662888  .00027476  00000+0  13756-2 0  9990
2 46080  53.0537 204.5968 0001803 145.5373 214.5738 15.17216817257213
STARLINK-1578           
1 46082U 20055BH  25087.74729988  .00004981  00000+0  35301-3 0  9994
2 46082  53.0530 209.6130 0001570  84.1205 275.9962 15.06404877257165
STARLINK-1579           
1 46083U 20055BJ  25087.31879168  .00020635  00000+0  13997-2 0  9994
2 46083  53.0554 211.5271 0001659  83.2675 276.8503 15.06411457257094
STARLINK-1585           
1 46117U 20057A   25087.61830469  .00012235  00000+0  83897-3 0  9992
2 46117  53.0539  50.1917 0001386  79.4791 280.6354 15.06395011254183
STARLINK-1588           
1 46118U 20057B   25087.91668981  .01318741  00000+0  17625-1 0  9990
2 46118  53.0535  64.8708 0001244  98.2961 267.3125 15.54698569  5843
STARLINK-1593           
1 46119U 20057C   25087.64966872 -.00001599  00000+0 -88525-4 0  9992
2 46119  53.0546  70.3974 0001484  87.4899 272.6260 15.06382066255169
STARLINK-1601           
1 46120U 20057D   25087.66806132  .00007891  00000+0  54830-3 0  9998
2 46120  53.0533  69.9690 0001265 103.9809 256.1320 15.06383018255193
STARLINK-1605           
1 46123U 20057G   25087.83024687  .00023195  00000+0  15713-2 0  9998
2 46123  53.0553  29.2406 0001522  90.4421 269.6742 15.06391016255776
STARLINK-1614           
1 46124U 20057H   25087.97029244 -.00000837  00000+0 -37258-4 0  9998
2 46124  53.0553  28.6094 0001612 110.9530 249.1632 15.06407793254525
STARLINK-1618           
1 46125U 20057J   25087.68648543  .00000064  00000+0  23183-4 0  9998
2 46125  53.0551  69.8829 0001406  94.9232 265.1918 15.06395523255172
STARLINK-1619           
1 46126U 20057K   25087.91668981  .00585680  00000+0  18941-2 0  9999
2 46126  53.0361 358.2815 0005579 140.7646 118.8454 15.88851791255607
STARLINK-1621           
1 46127U 20057L   25087.85051930  .00011336  00000+0  77908-3 0  9994
2 46127  53.0544  49.1463 0001634  67.1377 292.9784 15.06381986254217
STARLINK-1622           
1 46128U 20057M   25087.54641908  .00011168  00000+0  76803-3 0  9997
2 46128  53.0552  30.5125 0001607  71.7537 288.3626 15.06370504254459
STARLINK-1623           
1 46129U 20057N   25087.25523453  .00018944  00000+0  12881-2 0  9994
2 46129  53.0551  31.8196 0001596 113.4146 246.7011 15.06375038254417
STARLINK-1624           
1 46130U 20057P   25087.55380179  .00020765  00000+0  14096-2 0  9999
2 46130  53.0558  30.4806 0001476 109.1115 251.0034 15.06379146255705
STARLINK-1625           
1 46131U 20057Q   25087.30129454  .00003509  00000+0  25431-3 0  9993
2 46131  53.0535  51.6134 0001539 107.7779 252.3378 15.06409636254803
STARLINK-1639           
1 46135U 20057U   25087.91668981  .00624508  00000+0  29941-1 0  9993
2 46135  53.0556  28.5846 0001776  52.9295 234.3376 15.16289010255172
STARLINK-1643           
1 46136U 20057V   25087.94173360  .00003179  00000+0  23229-3 0  9999
2 46136  53.0546  58.7738 0001108  52.4256 307.6833 15.06388586254097
STARLINK-1586           
1 46137U 20057W   25087.62567188  .00012686  00000+0  86941-3 0  9993
2 46137  53.0542  50.1581 0001444  83.0062 277.1091 15.06382455254180
STARLINK-1590           
1 46138U 20057X   25086.17427465  .00941960  44269-3  17347-2 0  9994
2 46138  53.0436   3.7010 0005825 154.2577 354.2246 16.00687596255373
STARLINK-1596           
1 46141U 20057AA  25087.21338960  .00046641  00000+0  28195-2 0  9991
2 46141  53.0561  31.1494 0002085  94.0373 266.0856 15.10230938254412
STARLINK-1597           
1 46142U 20057AB  25087.64593712 -.00003066  00000+0 -18708-3 0  9993
2 46142  53.0550  70.0682 0001739  98.6403 261.4783 15.06391757253904
STARLINK-1606           
1 46144U 20057AD  25087.87631777  .00016310  00000+0  11116-2 0  9993
2 46144  53.0536  49.0301 0001278  85.3788 274.7347 15.06390412242471
STARLINK-1608           
1 46146U 20057AF  25087.65700134  .00000250  00000+0  35682-4 0  9997
2 46146  53.0567  70.0217 0001600  94.2226 265.8946 15.06395148253910
STARLINK-1616           
1 46148U 20057AH  25087.91668981  .00205049  00000+0  13698-2 0  9995
2 46148  53.0464  20.4268 0005822 181.5462 289.5836 15.74183123255247
STARLINK-1629           
1 46150U 20057AK  25087.65331386  .00000551  00000+0  55933-4 0  9996
2 46150  53.0544  70.0357 0001478  86.3431 273.7727 15.06387675253919
STARLINK-1631           
1 46151U 20057AL  25087.91668981  .00109232  00000+0  15670-2 0  9998
2 46151  53.0510  38.6523 0005704 120.0097 160.4519 15.55305192  5866
STARLINK-1636           
1 46153U 20057AN  25087.91668981  .00123067  00000+0  38112-2 0  9998
2 46153  53.0366  38.9576 0010618  45.2201 347.9793 15.32491563  5783
STARLINK-1642           
1 46154U 20057AP  25087.32618824 -.00000773  00000+0 -33014-4 0  9993
2 46154  53.0544  61.5021 0001324 103.7249 256.3888 15.06387862254001
STARLINK-1667           
1 46155U 20057AQ  25087.55011649  .00021169  00000+0  14364-2 0  9996
2 46155  53.0553  30.4993 0001485 103.9385 256.1769 15.06384490255692
STARLINK-1545           
1 46156U 20057AR  25087.60724277  .00009026  00000+0  62441-3 0  9999
2 46156  53.0537  50.2382 0001479  86.1977 273.9181 15.06378357255431
STARLINK-1587           
1 46157U 20057AS  25087.26261889  .00022320  00000+0  15136-2 0  9997
2 46157  53.0551  31.7868 0001490  56.4727 303.6404 15.06374990254412
STARLINK-1595           
1 46159U 20057AU  25087.23312015 -.00018546  00000+0 -12310-2 0  9992
2 46159  53.0535  71.9184 0001200  93.5409 266.5717 15.06351898254507
STARLINK-1598           
1 46160U 20057AV  25087.62198938  .00009358  00000+0  64654-3 0  9991
2 46160  53.0534  50.1746 0001128  73.2710 286.8403 15.06383957255431
STARLINK-1600           
1 46161U 20057AW  25087.91668981  .00175864  00000+0  24568-2 0  9999
2 46161  53.0376  21.7795 0004154  29.8034 355.5785 15.55760312255279
STARLINK-1610           
1 46163U 20057AY  25087.91668981  .00260680  00000+0  21384-2 0  9995
2 46163  53.0508  16.6743 0005791 151.5881 184.1829 15.69135612  5930
STARLINK-1612           
1 46164U 20057AZ  25087.13358880  .00017974  00000+0  12231-2 0  9991
2 46164  53.0553  32.3667 0001574 100.1898 259.9268 15.06381874255652
STARLINK-1626           
1 46167U 20057BC  25087.66436494 -.00000680  00000+0 -26783-4 0  9997
2 46167  53.0546  69.9861 0001912  86.4810 273.6398 15.06388396253915
